TRANSPORTER-16 OBJECT AF
1 68445U 26067AF  26104.14626828  .00002861  00000+0  14866-3 0  9992
2 68445  97.4467  63.5459 0003582 316.4859  43.6091 15.16883264  2225
