{
  "norad_id": 68445,
  "name": "TRANSPORTER-16 OBJECT AF",
  "history": [
    {
      "epoch": "2026-04-14T03:30:37.579392Z",
      "apogee_km": 517.736265138934,
      "perigee_km": 512.7978304790831,
      "latitude_deg": -2.2737019850031296e-05,
      "longitude_deg": 168.56244012255246,
      "height_km": 516.5641331134358,
      "semi_major_axis_km": 6893.404047809008,
      "eccentricity": 0.0003582,
      "inclination_deg": 97.4467,
      "raan_deg": 63.5459,
      "arg_perigee_deg": 316.4859,
      "mean_anomaly_deg": 43.6091,
      "mean_motion_rev_day": 15.16883264
    }
  ]
}